     2.100          NAVIGATION                              RINEX VERSION / TYPE
fic2rin                                 03/21/2017 00:18:43 PGM / RUN BY / DATE
                                                            END OF HEADER
22 17  3 20 20  0  0.0  .670216977596D-04 -.118234311230D-10  .000000000000D+00
     .220000000000D+02  .240625000000D+01  .550058626435D-08 -.459789740980D+00
     .221654772758D-06  .750812387560D-02  .725686550140D-05  .515355583954D+04
     .158400000000D+06 -.577419996262D-07 -.264071064534D+00  .134110450745D-06
     .923819627127D+00  .222312500000D+03 -.178517068903D+01 -.861178728694D-08
     .231795369493D-09  .100000000000D+01  .194100000000D+04  .000000000000D+00
     .240000000000D+01  .000000000000D+00 -.176951289177D-07  .220000000000D+02
     .151206000000D+06  .400000000000D+01
23 17  3 20 20  0  0.0 -.208019744605D-03 -.909494701773D-12  .000000000000D+00
     .450000000000D+02  .158125000000D+02  .498877923125D-08 -.121871789098D+01
     .838190317154D-06  .113868959015D-01  .744499266148D-05  .515377544403D+04
     .158400000000D+06  .271946191788D-06  .818293207665D+00  .242143869400D-07
     .944735171715D+00  .221875000000D+03 -.249013328034D+01 -.817784063989D-08
    -.550022910662D-10  .100000000000D+01  .194100000000D+04  .000000000000D+00
     .240000000000D+01  .000000000000D+00 -.200234353542D-07  .450000000000D+02
     .151206000000D+06  .400000000000D+01
25 17  3 20 20  0  0.0 -.355661846697D-03 -.670752342558D-11  .000000000000D+00
     .250000000000D+02  .324062500000D+02  .420910389750D-08  .244419730594D+01
     .152178108692D-05  .635120016523D-02  .568479299545D-05  .515361865997D+04
     .158400000000D+06 -.800937414169D-07  .292299757812D+01 -.838190317154D-07
     .977726772965D+00  .277500000000D+03  .771719297115D+00 -.793925927344D-08
    -.250010413937D-11  .100000000000D+01  .194100000000D+04  .000000000000D+00
     .240000000000D+01  .000000000000D+00  .558793544769D-08  .250000000000D+02
     .151206000000D+06  .400000000000D+01
26 17  3 20 20  0  0.0 -.517862383276D-03  .147792889038D-11  .000000000000D+00
     .740000000000D+02  .267187500000D+02  .469233831187D-08  .190930430148D+01
     .161677598953D-05  .179286557250D-02  .540353357792D-05  .515367683029D+04
     .158400000000D+06  .484287738800D-07  .290878340378D+01  .111758708954D-06
     .959524553741D+00  .274781250000D+03  .100181244494D-01 -.828927385296D-08
    -.271439877989D-10  .100000000000D+01  .194100000000D+04  .000000000000D+00
     .240000000000D+01  .000000000000D+00  .698491930962D-08  .740000000000D+02
     .151206000000D+06  .400000000000D+01
27 17  3 20 20  0  0.0  .227262265980D-03  .613908923697D-11  .000000000000D+00
     .960000000000D+02 -.461562500000D+02  .425874882255D-08  .141953620915D+00
    -.249780714512D-05  .455618288834D-02  .570900738239D-05  .515366245270D+04
     .158400000000D+06  .186264514923D-07 -.232072245429D+01  .391155481339D-07
     .974231381836D+00  .272312500000D+03  .294934639314D+00 -.810533761985D-08
    -.155006456641D-09  .100000000000D+01  .194100000000D+04  .000000000000D+00
     .340000000000D+01  .000000000000D+00  .186264514923D-08  .960000000000D+02
     .151206000000D+06  .400000000000D+01
28 17  3 20 20  0  0.0  .598494429141D-03  .306954461848D-11  .000000000000D+00
     .790000000000D+02  .166875000000D+02  .417231665088D-08  .921033610827D+00
     .661239027977D-06  .198198077269D-01  .543519854546D-05  .515364445114D+04
     .158400000000D+06 -.327825546265D-06  .300089732948D+01 -.203028321266D-06
     .989033698983D+00  .296718750000D+03 -.157180003050D+01 -.832284667997D-08
    -.628597612185D-10  .100000000000D+01  .194100000000D+04  .000000000000D+00
     .340000000000D+01  .000000000000D+00 -.111758708954D-07  .790000000000D+02
     .151206000000D+06  .400000000000D+01
29 17  3 20 20  0  0.0  .618910882622D-03 -.272848410532D-11  .000000000000D+00
     .820000000000D+02 -.470000000000D+02  .404302555110D-08  .215172715255D+01
    -.251829624176D-05  .691601191647D-03  .615045428276D-05  .515365928268D+04
     .158400000000D+06 -.372529029846D-08 -.225907120823D+01 -.391155481339D-07
     .980375321779D+00  .271468750000D+03 -.210638142610D-01 -.790675791963D-08
    -.121790787361D-09  .100000000000D+01  .194100000000D+04  .000000000000D+00
     .240000000000D+01  .000000000000D+00 -.102445483208D-07  .820000000000D+02
     .151206000000D+06  .400000000000D+01
30 17  3 20 20  0  0.0  .160038936883D-03 -.341060513165D-12  .000000000000D+00
     .100000000000D+02  .675312500000D+02  .482341520032D-08 -.267128116983D+01
     .351481139660D-05  .253505131695D-02  .802427530289D-05  .515370593071D+04
     .158400000000D+06 -.260770320892D-07  .193469953676D+01 -.149011611938D-07
     .948550024653D+00  .222218750000D+03  .305159248506D+01 -.816784022333D-08
    -.364300888880D-10  .100000000000D+01  .194100000000D+04  .000000000000D+00
     .240000000000D+01  .000000000000D+00  .372529029846D-08  .100000000000D+02
     .151206000000D+06  .400000000000D+01
31 17  3 20 20  0  0.0  .212288927287D-03 -.238742359215D-11  .000000000000D+00
     .360000000000D+02  .463125000000D+02  .439339728835D-08 -.292268155271D+01
     .248849391937D-05  .850007683039D-02  .805966556072D-05  .515367277718D+04
     .158400000000D+06 -.121071934700D-06  .190543854045D+01  .614672899246D-07
     .967555918405D+00  .229375000000D+03 -.268663989471D+00 -.783532637279D-08
    -.785747015231D-10  .100000000000D+01  .194100000000D+04  .000000000000D+00
     .240000000000D+01  .000000000000D+00 -.135041773319D-07  .360000000000D+02
     .151206000000D+06  .400000000000D+01
32 17  3 20 20  0  0.0 -.358787830919D-03 -.125055521494D-10  .000000000000D+00
     .350000000000D+02  .956250000000D+01  .475448375762D-08  .891758454942D+00
     .379979610443D-06  .900938524865D-03  .782869756222D-05  .515370576286D+04
     .158400000000D+06 -.130385160446D-07  .818701506638D+00 -.111758708954D-07
     .958365600780D+00  .227718750000D+03 -.273956692200D+01 -.812498129523D-08
    -.126076680171D-09  .100000000000D+01  .194100000000D+04  .000000000000D+00
     .240000000000D+01  .000000000000D+00  .465661287308D-09  .350000000000D+02
     .151206000000D+06  .400000000000D+01
 9 17  3 20 19 59 44.0  .326113309711D-03  .773070496507D-11  .000000000000D+00
     .600000000000D+01  .147812500000D+02  .480019994760D-08  .188746051928D+00
     .562518835068D-06  .883227912709D-03  .782124698162D-05  .515366700745D+04
     .158384000000D+06  .298023223877D-07  .815843680078D+00  .447034835815D-07
     .953854808453D+00  .222218750000D+03  .181344827669D+01 -.813783897366D-08
    -.112861844006D-09  .100000000000D+01  .194100000000D+04  .000000000000D+00
     .240000000000D+01  .000000000000D+00  .139698386192D-08  .600000000000D+01
     .154896000000D+06  .400000000000D+01
27 17  3 20 19 59 44.0  .227263197303D-03  .613908923697D-11  .000000000000D+00
     .000000000000D+00 -.461562500000D+02  .425874882255D-08  .139618974822D+00
    -.249780714512D-05  .455618056003D-02  .570900738239D-05  .515366245079D+04
     .158384000000D+06  .186264514923D-07 -.232072232409D+01  .391155481339D-07
     .974231387688D+00  .272312500000D+03  .294935606303D+00 -.810533761985D-08
    -.155006456641D-09  .100000000000D+01  .194100000000D+04  .000000000000D+00
     .240000000000D+01  .000000000000D+00  .186264514923D-08  .000000000000D+00
     .155766000000D+06  .400000000000D+01
 9 17  3 20 21 59 44.0  .326168723404D-03  .773070496507D-11  .000000000000D+00
     .700000000000D+01  .114375000000D+02  .470519599030D-08  .123834323984D+01
     .629574060440D-06  .883590662852D-03  .770762562752D-05  .515366817093D+04
     .165584000000D+06 -.558793544769D-08  .815785068265D+00  .186264514923D-07
     .953854194027D+00  .225875000000D+03  .181403766737D+01 -.811212361680D-08
    -.900037490174D-10  .100000000000D+01  .194100000000D+04  .000000000000D+00
     .240000000000D+01  .000000000000D+00  .139698386192D-08  .700000000000D+01
     .158406000000D+06  .400000000000D+01
27 17  3 20 21 59 44.0  .227307435125D-03  .613908923697D-11  .000000000000D+00
     .800000000000D+01 -.423125000000D+02  .433339478900D-08  .118981877673D+01
    -.200420618057D-05  .455663714092D-02  .562146306038D-05  .515366306114D+04
     .165584000000D+06  .353902578354D-07 -.232078080424D+01  .409781932831D-07
     .974230278796D+00  .276218750000D+03  .294921413072D+00 -.811533803640D-08
    -.140362989539D-09  .100000000000D+01  .194100000000D+04  .000000000000D+00
     .240000000000D+01  .000000000000D+00  .186264514923D-08  .800000000000D+01
     .158406000000D+06  .400000000000D+01
 1 17  3 20 22  0  0.0  .517223961651D-04  .795807864051D-12  .000000000000D+00
     .710000000000D+02 -.382500000000D+02  .429553606918D-08 -.101935455749D+01
    -.206008553505D-05  .634438358247D-02  .867992639542D-05  .515369092751D+04
     .165600000000D+06  .201165676117D-06 -.126294541552D+01 -.130385160446D-07
     .966595604850D+00  .216281250000D+03  .534346094002D+00 -.793175896103D-08
     .121433629627D-10  .100000000000D+01  .194100000000D+04  .000000000000D+00
     .240000000000D+01  .000000000000D+00  .512227416039D-08  .710000000000D+02
     .158406000000D+06  .400000000000D+01
 2 17  3 20 22  0  0.0  .455149915069D-03 -.716227077646D-11  .000000000000D+00
     .380000000000D+02 -.380937500000D+02  .495699219291D-08 -.655813721114D+00
    -.184401869774D-05  .167529899627D-01  .887922942638D-05  .515375304222D+04
     .165600000000D+06 -.800937414169D-07 -.131488596790D+01  .277534127235D-06
     .945479592209D+00  .204250000000D+03 -.200259791992D+01 -.851178312136D-08
     .124290891500D-09  .100000000000D+01  .194100000000D+04  .000000000000D+00
     .240000000000D+01  .000000000000D+00 -.204890966415D-07  .380000000000D+02
     .158406000000D+06  .400000000000D+01
